     2.10           G: GLONASS NAV DATA                     RINEX VERSION / TYPE
teqc  2015Jun23                         20220316 01:25:41UTCPGM / RUN BY / DATE
Linux 2.4.21-27.ELsmp|Opteron|gcc -static|Linux x86_64|=+   COMMENT
  2022     2    20    2.654269337654D-08                    CORR TO SYSTEM TIME
                                                            END OF HEADER
 9 22  2 21  6 45  0.0 4.063360393047D-05 1.818989403546D-12 2.343000000000D+04
   -1.274048876953D+04-2.583487510681D+00-1.862645149231D-09 0.000000000000D+00
    1.111478076172D+04 3.823051452637D-01 2.793967723846D-09-2.000000000000D+00
    1.908442675781D+04-1.954933166504D+00-9.313225746155D-10 0.000000000000D+00
21 22  2 21  7 15  0.0-2.797199413180D-04-2.728484105319D-12 2.520000000000D+04
   -1.897804687500D+03-2.308912277222D-01-1.862645149231D-09 0.000000000000D+00
    2.300606298828D+04 1.488090515137D+00 2.793967723846D-09 4.000000000000D+00
   -1.087191455078D+04 3.186336517334D+00 9.313225746155D-10 0.000000000000D+00
 7 22  2 21  7 15  0.0 3.187265247107D-05-0.000000000000D+00 2.520000000000D+04
    1.062659228516D+04-1.062774658203D+00-9.313225746155D-10 0.000000000000D+00
    1.963090576172D+04-1.318197250366D+00 1.862645149231D-09 5.000000000000D+00
   -1.225908300781D+04-3.026590347290D+00 9.313225746155D-10 0.000000000000D+00
 8 22  2 21  7 15  0.0-6.364937871695D-05-0.000000000000D+00 2.520000000000D+04
    1.867323535156D+04 4.929313659668D-01-1.862645149231D-09 0.000000000000D+00
    1.689685302734D+04 2.818326950073D-01 9.313225746155D-10 6.000000000000D+00
    4.028772949219D+03-3.519315719604D+00-0.000000000000D+00 0.000000000000D+00
 6 22  2 21  7 15  0.0-3.378558903933D-05-1.818989403546D-12 2.520000000000D+04
   -3.222523437500D+03-2.134243965149D+00-0.000000000000D+00 0.000000000000D+00
    1.194658935547D+04-2.182438850403D+00 1.862645149231D-09-4.000000000000D+00
   -2.230989599609D+04-8.628292083740D-01 2.793967723846D-09 0.000000000000D+00
 9 22  2 21  7 15  0.0 4.063732922077D-05 1.818989403546D-12 2.520000000000D+04
   -1.684886816406D+04-1.948878288269D+00-9.313225746155D-10 0.000000000000D+00
    1.202167333984D+04 5.922851562500D-01 2.793967723846D-09-2.000000000000D+00
    1.487207226562D+04-2.695164680481D+00-9.313225746155D-10 0.000000000000D+00
20 22  2 21  7 15  0.0-6.533414125443D-05-9.094947017729D-13 2.520000000000D+04
   -1.122916894531D+04 6.079454421997D-01-1.862645149231D-09 0.000000000000D+00
    2.114872070312D+04-1.059129714966D+00 3.725290298462D-09 2.000000000000D+00
    8.735074218750D+03 3.354324340820D+00-0.000000000000D+00 0.000000000000D+00
22 22  2 21  7 15  0.0-1.660641282797D-04-1.818989403546D-12 2.628000000000D+04
    6.583975585938D+03-8.144884109497D-01-9.313225746155D-10 0.000000000000D+00
    1.146963818359D+04 2.878353118896D+00 9.313225746155D-10-3.000000000000D+00
   -2.179882519531D+04 1.278308868408D+00 1.862645149231D-09 0.000000000000D+00
10 22  2 21  7 15  0.0-7.995590567589D-05-0.000000000000D+00 2.664000000000D+04
   -9.551484375000D+02-3.010496139526D+00-1.862645149231D-09 0.000000000000D+00
    1.150374853516D+04 8.040904998779D-01 1.862645149231D-09-7.000000000000D+00
    2.273891748047D+04-5.257139205933D-01-1.862645149231D-09 0.000000000000D+00
21 22  2 21  7 45  0.0-2.797255292535D-04-2.728484105319D-12 2.700000000000D+04
   -1.961997558594D+03 1.247539520264D-01-9.313225746155D-10 0.000000000000D+00
    2.498750390625D+04 6.868019104004D-01 3.725290298462D-09 4.000000000000D+00
   -4.790623046875D+03 3.526810646057D+00 0.000000000000D+00 0.000000000000D+00
 7 22  2 21  7 45  0.0 3.187265247107D-05-0.000000000000D+00 2.700000000000D+04
    8.075842285156D+03-1.767930030823D+00-9.313225746155D-10 0.000000000000D+00
    1.699233251953D+04-1.567707061768D+00 1.862645149231D-09 5.000000000000D+00
   -1.715991992188D+04-2.383218765259D+00 1.862645149231D-09 0.000000000000D+00
 8 22  2 21  7 45  0.0-6.365031003952D-05-0.000000000000D+00 2.700000000000D+04
    1.900215136719D+04-1.567554473877D-01-1.862645149231D-09 0.000000000000D+00
    1.682061474609D+04-3.378076553345D-01 9.313225746155D-10 6.000000000000D+00
   -2.379971679688D+03-3.555209159851D+00 0.000000000000D+00 0.000000000000D+00
 9 22  2 21  7 45  0.0 4.064012318850D-05 1.818989403546D-12 2.700000000000D+04
   -1.966885595703D+04-1.168976783752D+00-0.000000000000D+00 0.000000000000D+00
    1.311218212891D+04 5.789108276367D-01 2.793967723846D-09-2.000000000000D+00
    9.507060546875D+03-3.227225303650D+00-0.000000000000D+00 0.000000000000D+00
10 22  2 21  7 45  0.0-7.995590567589D-05-0.000000000000D+00 2.700000000000D+04
   -6.072641601562D+03-2.632345199585D+00-9.313225746155D-10 0.000000000000D+00
    1.327294042969D+04 1.135260581970D+00 2.793967723846D-09-7.000000000000D+00
    2.092566455078D+04-1.475711822510D+00-1.862645149231D-09 0.000000000000D+00
20 22  2 21  7 45  0.0-6.533600389957D-05-9.094947017729D-13 2.700000000000D+04
   -1.012288916016D+04 5.783462524414D-01-9.313225746155D-10 0.000000000000D+00
    1.847676416016D+04-1.893236160278D+00 3.725290298462D-09 2.000000000000D+00
    1.435626806641D+04 2.850872993469D+00-9.313225746155D-10 0.000000000000D+00
22 22  2 21  7 45  0.0-1.660697162151D-04-2.728484105319D-12 2.700000000000D+04
    5.590751953125D+03-2.979297637939D-01-9.313225746155D-10 0.000000000000D+00
    1.640190332031D+04 2.551289558411D+00 1.862645149231D-09-3.000000000000D+00
   -1.868346679688D+04 2.160942077637D+00 1.862645149231D-09 0.000000000000D+00
21 22  2 21  8 15  0.0-2.797301858664D-04-2.728484105319D-12 2.880000000000D+04
   -1.589335449219D+03 2.474613189697D-01-9.313225746155D-10 0.000000000000D+00
    2.541544384766D+04-2.190809249878D-01 3.725290298462D-09 4.000000000000D+00
    1.660713378906D+03 3.594842910767D+00 0.000000000000D+00 0.000000000000D+00
 7 22  2 21  8 15  0.0 3.187172114849D-05-0.000000000000D+00 2.880000000000D+04
    4.308894531250D+03-2.395281791687D+00-0.000000000000D+00 0.000000000000D+00
    1.415100488281D+04-1.545696258545D+00 1.862645149231D-09 5.000000000000D+00
   -2.072723388672D+04-1.554613113403D+00 2.793967723846D-09 0.000000000000D+00
 8 22  2 21  8 15  0.0-6.365124136209D-05-0.000000000000D+00 2.880000000000D+04
    1.803162890625D+04-9.344024658203D-01-9.313225746155D-10 0.000000000000D+00
    1.580620263672D+04-7.496366500854D-01 1.862645149231D-09 6.000000000000D+00
   -8.604121582031D+03-3.315400123596D+00 9.313225746155D-10 0.000000000000D+00
 9 22  2 21  8 15  0.0 4.064291715622D-05 1.818989403546D-12 2.880000000000D+04
   -2.103560742188D+04-3.532075881958D-01 0.000000000000D+00 0.000000000000D+00
    1.395699707031D+04 3.191213607788D-01 2.793967723846D-09-2.000000000000D+00
    3.404472167969D+03-3.509259223938D+00 0.000000000000D+00 0.000000000000D+00
10 22  2 21  8 15  0.0-7.995590567589D-05 0.000000000000D+00 2.880000000000D+04
   -1.029863427734D+04-2.033677101135D+00-0.000000000000D+00 0.000000000000D+00
    1.547184472656D+04 1.269486427307D+00 2.793967723846D-09-7.000000000000D+00
    1.749565966797D+04-2.310512542725D+00-9.313225746155D-10 0.000000000000D+00
20 22  2 21  8 15  0.0-6.533693522215D-05-0.000000000000D+00 2.880000000000D+04
   -9.289184570312D+03 3.134069442749D-01-0.000000000000D+00 0.000000000000D+00
    1.442626953125D+04-2.572769165039D+00 2.793967723846D-09 2.000000000000D+00
    1.886572705078D+04 2.127175331116D+00-9.313225746155D-10 0.000000000000D+00
22 22  2 21  8 15  0.0-1.660743728280D-04-2.728484105319D-12 2.880000000000D+04
    5.447728515625D+03 1.131629943848D-01-0.000000000000D+00 0.000000000000D+00
    2.048605566406D+04 1.945332527161D+00 2.793967723846D-09-3.000000000000D+00
   -1.411941357422D+04 2.877364158630D+00 9.313225746155D-10 0.000000000000D+00
21 22  2 21  8 45  0.0-2.797357738018D-04-2.728484105319D-12 3.060000000000D+04
   -1.223455566406D+03 1.178836822510D-01-0.000000000000D+00 0.000000000000D+00
    2.420740917969D+04-1.110699653625D+00 3.725290298462D-09 4.000000000000D+00
    7.983797363281D+03 3.385239601135D+00-0.000000000000D+00 0.000000000000D+00
 7 22  2 21  8 45  0.0 3.187172114849D-05-0.000000000000D+00 3.060000000000D+04
   -4.367626953125D+02-2.839501380920D+00 0.000000000000D+00 0.000000000000D+00
    1.157019482422D+04-1.287730216980D+00 1.862645149231D-09 5.000000000000D+00
   -2.268403613281D+04-6.055059432983D-01 2.793967723846D-09 0.000000000000D+00
 8 22  2 21  8 45  0.0-6.365217268467D-05-0.000000000000D+00 3.060000000000D+04
    1.562645605469D+04-1.731541633606D+00-0.000000000000D+00 0.000000000000D+00
    1.427444042969D+04-9.088001251221D-01 1.862645149231D-09 6.000000000000D+00
   -1.416031103516D+04-2.817774772644D+00 9.313225746155D-10 0.000000000000D+00
 9 22  2 21  8 45  0.0 4.064571112394D-05 1.818989403546D-12 3.060000000000D+04
   -2.098649560547D+04 3.862724304199D-01 9.313225746155D-10 0.000000000000D+00
    1.412510742188D+04-1.657781600952D-01 1.862645149231D-09-2.000000000000D+00
   -2.962411132812D+03-3.518911361694D+00 9.313225746155D-10 0.000000000000D+00
10 22  2 21  8 45  0.0-7.996056228876D-05 0.000000000000D+00 3.060000000000D+04
   -1.331867431641D+04-1.310202598572D+00 0.000000000000D+00 0.000000000000D+00
    1.769192871094D+04 1.153217315674D+00 2.793967723846D-09-7.000000000000D+00
    1.271561083984D+04-2.966130256653D+00-0.000000000000D+00 0.000000000000D+00
20 22  2 21  8 45  0.0-6.533879786730D-05-0.000000000000D+00 3.060000000000D+04
   -9.094837890625D+03-1.175394058228D-01-0.000000000000D+00 0.000000000000D+00
    9.364696777344D+03-3.003741264343D+00 1.862645149231D-09 2.000000000000D+00
    2.191556298828D+04 1.239665985107D+00-1.862645149231D-09 0.000000000000D+00
22 22  2 21  8 45  0.0-1.660799607635D-04-2.728484105319D-12 3.060000000000D+04
    5.881002441406D+03 3.302536010742D-01-0.000000000000D+00 0.000000000000D+00
    2.328279931641D+04 1.136610031128D+00 3.725290298462D-09-3.000000000000D+00
   -8.458870605469D+03 3.371175765991D+00 9.313225746155D-10 0.000000000000D+00
